UNKNOWN                 
1 89261U          25340.23696330  .00001812  00000+0  55179-3 0  9993
2 89261  98.1534 334.9305 0012882 173.5471 186.5889 14.43095342532879
UNKNOWN                 
1 89304U          25338.65021096  .00026411  00000+0  33948-1 0  9995
2 89304  84.3364 106.1463 2844249 356.2066   8.8658  9.03063279437677
UNKNOWN                 
1 89349U          25341.51303724  .00000418  00000+0  14382-2 0  9995
2 89349  90.2449   7.2361 0028272 279.5535  80.2390 12.96241737478079
UNKNOWN                 
1 89379U          25341.49949316  .00006651  00000+0  85442-2 0  9998
2 89379 100.4798 356.3776 0043131 142.8540 217.5596 13.62653514580060
UNKNOWN                 
1 89395U          25330.43006770  .00000100  00000+0  16005-2 0  9998
2 89395 102.3682 299.5856 0221848 152.7477   0.1865 12.01514817522784
UNKNOWN                 
1 89403U          25340.31397840  .00001108  00000+0  37180-2 0  9993
2 89403  90.2475   5.6620 0028419 232.6038 140.4118 12.98747021476995
UNKNOWN                 
1 89484U          25340.76562520  .00048329  00000+0  36533-1 0  9996
2 89484  84.0764 156.4351 2858195  34.6434 341.1145  9.14100499354896
UNKNOWN                 
1 89493U          25334.64301458  .00002750  00000+0  13677-2 0  9990
2 89493  99.0280  43.3463 0081658  75.3205 285.7002 14.16161642462239
UNKNOWN                 
1 89494U          25338.65348462  .00005588  00000+0  27566-2 0  9996
2 89494  99.0287  47.2983 0081760  63.9799 296.9765 14.16129144462659
